ONEWEB-0616             
1 55157U 23004T   23059.33334491 -.00027559  00000+0 -50893-2 0  9997
2 55157  86.6196 264.2387 0013712  53.5256 176.0401 14.65700137  7441
ONEWEB-0616             
1 55157U 23004T   23059.58334491 -.00058274  00000+0 -10806-1 0  9991
2 55157  86.6197 264.1354 0013650  52.9686  54.8573 14.65700896  1300
ONEWEB-0616             
1 55157U 23004T   23059.91667824  .00050251  00000+0  91748-2 0  9997
2 55157  86.6197 263.9970 0013675  51.9762  13.5277 14.65629521  1300
ONEWEB-0616             
1 55157U 23004T   23060.45049399  .00000970  00000+0  17402-3 0  9998
2 55157  86.6192 263.7776 0013598  50.1917 310.0491 14.65656985  7611
ONEWEB-0616             
1 55157U 23004T   23060.86013250  .00000583  00000+0  10286-3 0  9993
2 55157  86.6193 263.6087 0013568  48.6005 311.6372 14.65658688  7676
ONEWEB-0616             
1 55157U 23004T   23061.81595154 -.00001883  00000+0 -35072-3 0  9993
2 55157  86.6193 263.2144 0013465  46.0624 314.1698 14.65671178  7815
ONEWEB-0616             
1 55157U 23004T   23062.49871159 -.00002289  00000+0 -42573-3 0  9995
2 55157  86.6192 262.9327 0013326  44.7083 315.5202 14.65635052  7911
ONEWEB-0616             
1 55157U 23004T   23062.97660350  .00001463  00000+0  26459-3 0  9993
2 55157  86.6191 262.7354 0013393  43.3092 316.9171 14.65661214  7983
